NORAD_CAT_ID,OBJECT_NAME,OBJECT_TYPE,EPOCH,MEAN_MOTION,ECCENTRICITY,INCLINATION,RA_OF_ASC_NODE,ARG_OF_PERICENTER,MEAN_ANOMALY,BSTAR,MEAN_MOTION_DOT,MEAN_MOTION_DDOT,TLE_LINE0,TLE_LINE1,TLE_LINE2,SEMIMAJOR_AXIS,PERIOD,APOGEE,PERIGEE,DECAYED
53564.0,STARLINK-4577,PAYLOAD,2024-06-19 12:44:48,15.088323,0.0001331,53.2182,354.0989,88.5502,271.5642,2.7243e-05,1.46e-06,0.0,0 STARLINK-4577,1 53564U 22101AP  24171.53111981  .00000146  00000-0  27243-4 0  9996,2 53564  53.2182 354.0989 0001331  88.5502 271.5642 15.08832300101616,6917.904,95.438,540.69,538.848,0.0
53564.0,STARLINK-4577,PAYLOAD,2024-06-19 19:06:20,15.08848168,0.0001294,53.2182,352.9122,89.3354,270.7786,-8.987e-05,-1.718e-05,0.0,0 STARLINK-4577,1 53564U 22101AP  24171.79607573 -.00001718  00000-0 -89870-4 0  9993,2 53564  53.2182 352.9122 0001294  89.3354 270.7786 15.08848168101657,6917.855,95.437,540.616,538.825,0.0
53564.0,STARLINK-4577,PAYLOAD,2024-06-20 12:35:35,15.08826202,0.0001608,53.2185,349.6433,107.1282,252.9887,0.00010722,1.418e-05,0.0,0 STARLINK-4577,1 53564U 22101AP  24172.52472220  .00001418  00000-0  10722-3 0  9998,2 53564  53.2185 349.6433 0001608 107.1282 252.9887 15.08826202101767,6917.923,95.438,540.9,538.675,0.0
53564.0,STARLINK-4577,PAYLOAD,2024-06-20 18:57:08,15.08835275,0.0001354,53.2193,348.4537,85.3957,274.719,1.7577e-05,-8e-08,0.0,0 STARLINK-4577,1 53564U 22101AP  24172.78968218 -.00000008  00000-0  17577-4 0  9994,2 53564  53.2193 348.4537 0001354  85.3957 274.7190 15.08835275101806,6917.895,95.438,540.697,538.823,0.0
53564.0,STARLINK-4577,PAYLOAD,2024-06-21 10:50:59,15.08836674,0.0001495,53.2197,345.4805,108.462,251.6534,3.7816e-05,3.14e-06,0.0,0 STARLINK-4577,1 53564U 22101AP  24173.45208184  .00000314  00000-0  37816-4 0  9995,2 53564  53.2197 345.4805 0001495 108.4620 251.6534 15.08836674101906,6917.891,95.438,540.79,538.721,0.0
53564.0,STARLINK-4577,PAYLOAD,2024-06-21 18:47:55,15.08837862,0.0001368,53.2189,343.992,102.9304,257.1841,4.0626e-05,3.59e-06,0.0,0 STARLINK-4577,1 53564U 22101AP  24173.78328256  .00000359  00000-0  40626-4 0  9996,2 53564  53.2189 343.9920 0001368 102.9304 257.1841 15.08837862101952,6917.887,95.438,540.698,538.806,0.0
53564.0,STARLINK-4577,PAYLOAD,2024-06-22 10:41:46,15.08837463,0.0001313,53.219,341.0181,89.3182,270.796,0.00010199,1.336e-05,0.0,0 STARLINK-4577,1 53564U 22101AP  24174.44568219  .00001336  00000-0  10199-3 0  9992,2 53564  53.2190 341.0181 0001313  89.3182 270.7960 15.08837463102056,6917.888,95.438,540.661,538.845,0.0
53564.0,STARLINK-4577,PAYLOAD,2024-06-22 20:14:05,15.08847567,0.0001253,53.2183,339.233,87.123,272.9906,0.00012523,1.706e-05,0.0,0 STARLINK-4577,1 53564U 22101AP  24174.84311546  .00001706  00000-0  12523-3 0  9999,2 53564  53.2183 339.2330 0001253  87.1230 272.9906 15.08847567102113,6917.857,95.437,540.589,538.855,0.0
53564.0,STARLINK-4577,PAYLOAD,2024-06-23 10:32:34,15.08838902,0.0001249,53.2175,336.5549,95.7303,264.3831,2.6368e-05,1.32e-06,0.0,0 STARLINK-4577,1 53564U 22101AP  24175.43928427  .00000132  00000-0  26368-4 0  9992,2 53564  53.2175 336.5549 0001249  95.7303 264.3831 15.08838902102202,6917.884,95.438,540.613,538.885,0.0
53564.0,STARLINK-4577,PAYLOAD,2024-06-23 18:29:29,15.0884144,0.0001061,53.2177,335.0689,93.7618,266.3496,5.3e-05,5.56e-06,0.0,0 STARLINK-4577,1 53564U 22101AP  24175.77048115  .00000556  00000-0  53000-4 0  9999,2 53564  53.2177 335.0689 0001061  93.7618 266.3496 15.08841440102257,6917.876,95.437,540.475,539.007,0.0
53564.0,STARLINK-4577,PAYLOAD,2024-06-24 10:23:20,15.08846307,0.0001251,53.2184,332.0964,82.7863,277.3272,2.4363e-05,1e-06,0.0,0 STARLINK-4577,1 53564U 22101AP  24176.43287916  .00000100  00000-0  24363-4 0  9992,2 53564  53.2184 332.0964 0001251  82.7863 277.3272 15.08846307102351,6917.861,95.437,540.592,538.861,0.0
53564.0,STARLINK-4577,PAYLOAD,2024-06-24 16:44:52,15.08849398,0.0001337,53.2184,330.9074,79.3455,280.7688,5.56e-05,5.97e-06,0.0,0 STARLINK-4577,1 53564U 22101AP  24176.69783546  .00000597  00000-0  55600-4 0  9998,2 53564  53.2184 330.9074 0001337  79.3455 280.7688 15.08849398102390,6917.852,95.437,540.642,538.792,0.0
53564.0,STARLINK-4577,PAYLOAD,2024-06-25 16:35:40,15.08839549,0.0001564,53.218,326.4481,63.7606,296.3547,2.2488e-05,7e-07,0.0,0 STARLINK-4577,1 53564U 22101AP  24177.69144246  .00000070  00000-0  22488-4 0  9991,2 53564  53.2180 326.4481 0001564  63.7606 296.3547 15.08839549102546,6917.882,95.438,540.829,538.665,0.0
53564.0,STARLINK-4577,PAYLOAD,2024-06-27 13:06:28,15.0883978,0.0001349,53.2179,318.1207,77.9517,282.1626,1.488e-05,-5.1e-07,0.0,0 STARLINK-4577,1 53564U 22101AP  24179.54616205 -.00000051  00000-0  14880-4 0  9993,2 53564  53.2179 318.1207 0001349  77.9517 282.1626 15.08839780102826,6917.881,95.438,540.679,538.813,0.0
53564.0,STARLINK-4577,PAYLOAD,2024-06-27 16:17:14,15.08837894,0.0001205,53.2178,317.5267,95.7504,264.3626,4.0135e-05,3.51e-06,0.0,0 STARLINK-4577,1 53564U 22101AP  24179.67864244  .00000351  00000-0  40135-4 0  9999,2 53564  53.2178 317.5267 0001205  95.7504 264.3626 15.08837894102847,6917.887,95.438,540.585,538.918,0.0
53564.0,STARLINK-4577,PAYLOAD,2024-06-28 14:32:38,15.08845546,0.0001056,53.2159,313.3599,69.3164,290.7942,4.2216e-05,3.84e-06,0.0,0 STARLINK-4577,1 53564U 22101AP  24180.60600271  .00000384  00000-0  42216-4 0  9990,2 53564  53.2159 313.3599 0001056  69.3164 290.7942 15.08845546102983,6917.863,95.437,540.459,538.998,0.0
53564.0,STARLINK-4577,PAYLOAD,2024-06-29 01:40:19,15.08851821,0.0001123,53.2155,311.2779,51.9202,308.1891,0.00015718,2.215e-05,0.0,0 STARLINK-4577,1 53564U 22101AP  24181.06967083  .00002215  00000-0  15718-3 0  9999,2 53564  53.2155 311.2779 0001123  51.9202 308.1891 15.08851821103050,6917.844,95.437,540.486,538.932,0.0
53564.0,STARLINK-4577,PAYLOAD,2024-06-29 12:48:03,15.0882208,0.0001133,53.2161,309.1973,63.6156,296.4952,-8.7586e-05,-1.681e-05,0.0,0 STARLINK-4577,1 53564U 22101AP  24181.53337905 -.00001681  00000-0 -87586-4 0  9996,2 53564  53.2161 309.1973 0001133  63.6156 296.4952 15.08822080103128,6917.935,95.439,540.584,539.016,0.0
53564.0,STARLINK-4577,PAYLOAD,2024-06-29 19:09:35,15.08835474,0.0001078,53.2163,308.0093,75.9951,284.1161,4.6425e-05,4.51e-06,0.0,0 STARLINK-4577,1 53564U 22101AP  24181.79832938  .00000451  00000-0  46425-4 0  9999,2 53564  53.2163 308.0093 0001078  75.9951 284.1161 15.08835474103169,6917.894,95.438,540.505,539.013,0.0
53564.0,STARLINK-4577,PAYLOAD,2024-06-30 14:14:12,15.08850516,0.0001117,53.215,304.4403,61.738,298.3725,-2.2845e-05,-6.51e-06,0.0,0 STARLINK-4577,1 53564U 22101AP  24182.59320483 -.00000651  00000-0 -22845-4 0  9999,2 53564  53.2150 304.4403 0001117  61.7380 298.3725 15.08850516103283,6917.848,95.437,540.486,538.941,0.0
53564.0,STARLINK-4577,PAYLOAD,2024-06-30 15:49:35,15.08851729,0.0001292,53.2165,304.1416,63.9646,296.1479,0.0001302,1.785e-05,0.0,0 STARLINK-4577,1 53564U 22101AP  24182.65943994  .00001785  00000-0  13020-3 0  9995,2 53564  53.2165 304.1416 0001292  63.9646 296.1479 15.08851729103293,6917.845,95.437,540.603,538.816,0.0
53564.0,STARLINK-4577,PAYLOAD,2024-07-01 01:21:54,15.08848056,0.0001274,53.2163,302.3584,67.6276,292.4851,2.7582e-05,1.51e-06,0.0,0 STARLINK-4577,1 53564U 22101AP  24183.05688214  .00000151  00000-0  27582-4 0  9996,2 53564  53.2163 302.3584 0001274  67.6276 292.4851 15.08848056103356,6917.856,95.437,540.602,538.839,0.0
53564.0,STARLINK-4577,PAYLOAD,2024-07-01 12:29:37,15.08830799,0.000126,53.2148,300.2782,71.1959,288.917,0.00019803,2.864e-05,0.0,0 STARLINK-4577,1 53564U 22101AP  24183.52057031  .00002864  00000-0  19803-3 0  9994,2 53564  53.2148 300.2782 0001260  71.1959 288.9170 15.08830799103426,6917.909,95.438,540.645,538.902,0.0
53564.0,STARLINK-4577,PAYLOAD,2024-07-01 14:05:00,15.08831438,0.0001193,53.2143,299.9803,72.3846,287.7277,0.00019908,2.881e-05,0.0,0 STARLINK-4577,1 53564U 22101AP  24183.58680981  .00002881  00000-0  19908-3 0  9991,2 53564  53.2143 299.9803 0001193  72.3846 287.7277 15.08831438103439,6917.907,95.438,540.597,538.946,0.0
53564.0,STARLINK-4577,PAYLOAD,2024-07-01 17:15:46,15.0884497,0.0001237,53.2156,299.3847,79.0243,281.0888,0.00015669,2.207e-05,0.0,0 STARLINK-4577,1 53564U 22101AP  24183.71928280  .00002207  00000-0  15669-3 0  9995,2 53564  53.2156 299.3847 0001237  79.0243 281.0888 15.08844970103451,6917.865,95.437,540.586,538.874,0.0
53564.0,STARLINK-4577,PAYLOAD,2024-07-02 01:12:42,15.08836038,0.0001483,53.2159,297.897,82.4967,277.6194,8.7892e-05,1.111e-05,0.0,0 STARLINK-4577,1 53564U 22101AP  24184.05049109  .00001111  00000-0  87892-4 0  9998,2 53564  53.2159 297.8970 0001483  82.4967 277.6194 15.08836038103501,6917.892,95.438,540.783,538.732,0.0
53564.0,STARLINK-4577,PAYLOAD,2024-07-02 13:55:47,15.08841377,0.0001429,53.2154,295.5197,81.3805,278.7349,4.4596e-05,4.22e-06,0.0,0 STARLINK-4577,1 53564U 22101AP  24184.58040972  .00000422  00000-0  44596-4 0  9993,2 53564  53.2154 295.5197 0001429  81.3805 278.7349 15.08841377103585,6917.876,95.437,540.73,538.753,0.0
53564.0,STARLINK-4577,PAYLOAD,2024-07-03 13:46:34,15.08833991,0.0001216,53.2163,291.0606,82.1024,278.0106,3.2655e-05,2.32e-06,0.0,0 STARLINK-4577,1 53564U 22101AP  24185.57401602  .00000232  00000-0  32655-4 0  9996,2 53564  53.2163 291.0606 0001216  82.1024 278.0106 15.08833991103731,6917.899,95.438,540.605,538.923,0.0
53564.0,STARLINK-4577,PAYLOAD,2024-07-03 16:57:20,15.08842745,0.0001247,53.2175,290.4633,88.4788,271.6347,-5.0485e-07,-2.96e-06,0.0,0 STARLINK-4577,1 53564U 22101AP  24185.70649122 -.00000296  00000-0 -50485-6 0  9997,2 53564  53.2175 290.4633 0001247  88.4788 271.6347 15.08842745103752,6917.872,95.437,540.6,538.874,0.0
53564.0,STARLINK-4577,PAYLOAD,2024-07-04 13:37:21,15.08839051,0.0001067,53.2159,286.6006,90.5739,269.5376,0.00011741,1.581e-05,0.0,0 STARLINK-4577,1 53564U 22101AP  24186.56761236  .00001581  00000-0  11741-3 0  9998,2 53564  53.2159 286.6006 0001067  90.5739 269.5376 15.08839051103883,6917.883,95.438,540.486,539.01,0.0
